CCSDS_OMM_VERS = 2.0
CREATION_DATE  = 
ORIGINATOR     = 

OBJECT_NAME    = SL-3 R/B
OBJECT_ID      = 1988-032B
CENTER_NAME    = EARTH
REF_FRAME      = TEME
TIME_SYSTEM    = UTC
MEAN_ELEMENT_THEORY = SGP/SGP4

EPOCH          = 2026-03-08T02:04:47.411904
MEAN_MOTION    = 15.19888486
ECCENTRICITY   = .0024321
INCLINATION    = 97.5197
RA_OF_ASC_NODE = 50.3430
ARG_OF_PERICENTER = 237.4031
MEAN_ANOMALY   = 122.4856

EPHEMERIS_TYPE = 0
CLASSIFICATION_TYPE = U
NORAD_CAT_ID   = 19046
ELEMENT_SET_NO = 999
REV_AT_EPOCH   = 5186
BSTAR          = .37993E-3
MEAN_MOTION_DOT = .8152E-4
MEAN_MOTION_DDOT = 0

CCSDS_OMM_VERS = 2.0
CREATION_DATE  = 
ORIGINATOR     = 

OBJECT_NAME    = SL-16 R/B
OBJECT_ID      = 1988-039B
CENTER_NAME    = EARTH
REF_FRAME      = TEME
TIME_SYSTEM    = UTC
MEAN_ELEMENT_THEORY = SGP/SGP4

EPOCH          = 2026-03-08T03:33:31.053312
MEAN_MOTION    = 14.19615462
ECCENTRICITY   = .0022697
INCLINATION    = 71.0132
RA_OF_ASC_NODE = 71.8070
ARG_OF_PERICENTER = 336.5845
MEAN_ANOMALY   = 23.4244

EPHEMERIS_TYPE = 0
CLASSIFICATION_TYPE = U
NORAD_CAT_ID   = 19120
ELEMENT_SET_NO = 999
REV_AT_EPOCH   = 95816
BSTAR          = -.47846E-4
MEAN_MOTION_DOT = -.15E-5
MEAN_MOTION_DDOT = 0

CCSDS_OMM_VERS = 2.0
CREATION_DATE  = 
ORIGINATOR     = 

OBJECT_NAME    = COSMOS 1953
OBJECT_ID      = 1988-050A
CENTER_NAME    = EARTH
REF_FRAME      = TEME
TIME_SYSTEM    = UTC
MEAN_ELEMENT_THEORY = SGP/SGP4

EPOCH          = 2026-03-07T17:27:04.641984
MEAN_MOTION    = 15.28485046
ECCENTRICITY   = .00124493
INCLINATION    = 82.5102
RA_OF_ASC_NODE = 160.2199
ARG_OF_PERICENTER = 128.9174
MEAN_ANOMALY   = 231.3177

EPHEMERIS_TYPE = 0
CLASSIFICATION_TYPE = U
NORAD_CAT_ID   = 19210
ELEMENT_SET_NO = 999
REV_AT_EPOCH   = 3748
BSTAR          = .44938728E-3
MEAN_MOTION_DOT = .12521E-3
MEAN_MOTION_DDOT = 0

CCSDS_OMM_VERS = 2.0
CREATION_DATE  = 
ORIGINATOR     = 

OBJECT_NAME    = SL-8 R/B
OBJECT_ID      = 1988-053B
CENTER_NAME    = EARTH
REF_FRAME      = TEME
TIME_SYSTEM    = UTC
MEAN_ELEMENT_THEORY = SGP/SGP4

EPOCH          = 2026-03-08T02:54:11.292192
MEAN_MOTION    = 14.38914924
ECCENTRICITY   = .0021389
INCLINATION    = 74.0462
RA_OF_ASC_NODE = 115.3581
ARG_OF_PERICENTER = 294.7922
MEAN_ANOMALY   = 95.3187

EPHEMERIS_TYPE = 0
CLASSIFICATION_TYPE = U
NORAD_CAT_ID   = 19257
ELEMENT_SET_NO = 999
REV_AT_EPOCH   = 97637
BSTAR          = .12243E-3
MEAN_MOTION_DOT = .352E-5
MEAN_MOTION_DDOT = 0

CCSDS_OMM_VERS = 2.0
CREATION_DATE  = 
ORIGINATOR     = 

OBJECT_NAME    = COSMOS 1975
OBJECT_ID      = 1988-093A
CENTER_NAME    = EARTH
REF_FRAME      = TEME
TIME_SYSTEM    = UTC
MEAN_ELEMENT_THEORY = SGP/SGP4

EPOCH          = 2026-03-08T03:40:35.194368
MEAN_MOTION    = 15.28045362
ECCENTRICITY   = .0012015
INCLINATION    = 82.5181
RA_OF_ASC_NODE = 119.2276
ARG_OF_PERICENTER = 168.5425
MEAN_ANOMALY   = 191.6090

EPHEMERIS_TYPE = 0
CLASSIFICATION_TYPE = U
NORAD_CAT_ID   = 19573
ELEMENT_SET_NO = 999
REV_AT_EPOCH   = 1917
BSTAR          = .39531E-3
MEAN_MOTION_DOT = .10868E-3
MEAN_MOTION_DDOT = 0

CCSDS_OMM_VERS = 2.0
CREATION_DATE  = 
ORIGINATOR     = 

OBJECT_NAME    = SL-14 R/B
OBJECT_ID      = 1988-093B
CENTER_NAME    = EARTH
REF_FRAME      = TEME
TIME_SYSTEM    = UTC
MEAN_ELEMENT_THEORY = SGP/SGP4

EPOCH          = 2026-03-08T04:06:23.493600
MEAN_MOTION    = 14.85654687
ECCENTRICITY   = .0021865
INCLINATION    = 82.5303
RA_OF_ASC_NODE = 43.4692
ARG_OF_PERICENTER = 46.2842
MEAN_ANOMALY   = 324.5896

EPHEMERIS_TYPE = 0
CLASSIFICATION_TYPE = U
NORAD_CAT_ID   = 19574
ELEMENT_SET_NO = 999
REV_AT_EPOCH   = 79
BSTAR          = .93862E-4
MEAN_MOTION_DOT = .841E-5
MEAN_MOTION_DDOT = 0

CCSDS_OMM_VERS = 2.0
CREATION_DATE  = 
ORIGINATOR     = 

OBJECT_NAME    = SL-16 R/B
OBJECT_ID      = 1988-102B
CENTER_NAME    = EARTH
REF_FRAME      = TEME
TIME_SYSTEM    = UTC
MEAN_ELEMENT_THEORY = SGP/SGP4

EPOCH          = 2026-03-07T23:56:48.757056
MEAN_MOTION    = 14.16150967
ECCENTRICITY   = .0013849
INCLINATION    = 71.0000
RA_OF_ASC_NODE = 155.0571
ARG_OF_PERICENTER = 4.2178
MEAN_ANOMALY   = 355.9060

EPHEMERIS_TYPE = 0
CLASSIFICATION_TYPE = U
NORAD_CAT_ID   = 19650
ELEMENT_SET_NO = 999
REV_AT_EPOCH   = 92665
BSTAR          = .1617E-3
MEAN_MOTION_DOT = .272E-5
MEAN_MOTION_DDOT = 0

CCSDS_OMM_VERS = 2.0
CREATION_DATE  = 
ORIGINATOR     = 

OBJECT_NAME    = INTERCOSMOS 24
OBJECT_ID      = 1989-080A
CENTER_NAME    = EARTH
REF_FRAME      = TEME
TIME_SYSTEM    = UTC
MEAN_ELEMENT_THEORY = SGP/SGP4

EPOCH          = 2026-03-08T03:13:43.271040
MEAN_MOTION    = 12.59555505
ECCENTRICITY   = .1186719
INCLINATION    = 82.6028
RA_OF_ASC_NODE = 105.4171
ARG_OF_PERICENTER = 296.4335
MEAN_ANOMALY   = 51.9783

EPHEMERIS_TYPE = 0
CLASSIFICATION_TYPE = U
NORAD_CAT_ID   = 20261
ELEMENT_SET_NO = 999
REV_AT_EPOCH   = 66660
BSTAR          = .292E-3
MEAN_MOTION_DOT = .98E-5
MEAN_MOTION_DDOT = 0

CCSDS_OMM_VERS = 2.0
CREATION_DATE  = 
ORIGINATOR     = 

OBJECT_NAME    = SL-14 R/B
OBJECT_ID      = 1989-080C
CENTER_NAME    = EARTH
REF_FRAME      = TEME
TIME_SYSTEM    = UTC
MEAN_ELEMENT_THEORY = SGP/SGP4

EPOCH          = 2026-03-08T00:51:02.821248
MEAN_MOTION    = 12.50491552
ECCENTRICITY   = .1230514
INCLINATION    = 82.5974
RA_OF_ASC_NODE = 174.2478
ARG_OF_PERICENTER = 188.5301
MEAN_ANOMALY   = 169.3021

EPHEMERIS_TYPE = 0
CLASSIFICATION_TYPE = U
NORAD_CAT_ID   = 20262
ELEMENT_SET_NO = 999
REV_AT_EPOCH   = 65994
BSTAR          = .25677E-3
MEAN_MOTION_DOT = .865E-5
MEAN_MOTION_DDOT = 0

CCSDS_OMM_VERS = 2.0
CREATION_DATE  = 
ORIGINATOR     = 

OBJECT_NAME    = DELTA 1 R/B
OBJECT_ID      = 1989-089B
CENTER_NAME    = EARTH
REF_FRAME      = TEME
TIME_SYSTEM    = UTC
MEAN_ELEMENT_THEORY = SGP/SGP4

EPOCH          = 2026-03-08T02:28:50.502720
MEAN_MOTION    = 14.50661707
ECCENTRICITY   = .0070377
INCLINATION    = 97.0706
RA_OF_ASC_NODE = 274.7943
ARG_OF_PERICENTER = 126.9278
MEAN_ANOMALY   = 233.8395

EPHEMERIS_TYPE = 0
CLASSIFICATION_TYPE = U
NORAD_CAT_ID   = 20323
ELEMENT_SET_NO = 999
REV_AT_EPOCH   = 89550
BSTAR          = .12478E-3
MEAN_MOTION_DOT = .471E-5
MEAN_MOTION_DDOT = 0

CCSDS_OMM_VERS = 2.0
CREATION_DATE  = 
ORIGINATOR     = 

OBJECT_NAME    = ARIANE 40 R/B
OBJECT_ID      = 1990-005H
CENTER_NAME    = EARTH
REF_FRAME      = TEME
TIME_SYSTEM    = UTC
MEAN_ELEMENT_THEORY = SGP/SGP4

EPOCH          = 2026-03-08T03:29:52.263456
MEAN_MOTION    = 14.39869512
ECCENTRICITY   = .000975
INCLINATION    = 98.3086
RA_OF_ASC_NODE = 127.8532
ARG_OF_PERICENTER = 203.1950
MEAN_ANOMALY   = 156.8800

EPHEMERIS_TYPE = 0
CLASSIFICATION_TYPE = U
NORAD_CAT_ID   = 20443
ELEMENT_SET_NO = 999
REV_AT_EPOCH   = 89258
BSTAR          = .13608E-3
MEAN_MOTION_DOT = .385E-5
MEAN_MOTION_DDOT = 0

CCSDS_OMM_VERS = 2.0
CREATION_DATE  = 
ORIGINATOR     = 

OBJECT_NAME    = DELTA 2 R/B(1)
OBJECT_ID      = 1990-008B
CENTER_NAME    = EARTH
REF_FRAME      = TEME
TIME_SYSTEM    = UTC
MEAN_ELEMENT_THEORY = SGP/SGP4

EPOCH          = 2026-03-08T00:39:02.437056
MEAN_MOTION    = 15.55745350
ECCENTRICITY   = .0085724
INCLINATION    = 35.6040
RA_OF_ASC_NODE = 185.7642
ARG_OF_PERICENTER = 243.3717
MEAN_ANOMALY   = 115.8217

EPHEMERIS_TYPE = 0
CLASSIFICATION_TYPE = U
NORAD_CAT_ID   = 20453
ELEMENT_SET_NO = 999
REV_AT_EPOCH   = 92587
BSTAR          = .98454E-3
MEAN_MOTION_DOT = .83705E-3
MEAN_MOTION_DDOT = 0

